STARLINK-4334
1 53665U 22105T   26090.51136259 -.00000816  00000+0 -45041-4 0  9998
2 53665  97.6028 332.8724 0002162  88.4757 271.6721 15.11034457196595
